IRIDIUM 144             
1 43249U 18030A   25300.48281706  .00000392  00000+0  13289-3 0  9999
2 43249  86.4007  27.6739 0001967  96.8573 263.2847 14.34219613396783
IRIDIUM 149             
1 43250U 18030B   25300.48915999  .00000423  00000+0  14398-3 0  9996
2 43250  86.4008  27.6409 0002031  95.0131 265.1297 14.34218814396809
IRIDIUM 157             
1 43251U 18030C   25300.71749366  .00000092  00000+0  25831-4 0  9993
2 43251  86.4008  27.5937 0002252 100.3868 259.7582 14.34218190396811
IRIDIUM 140             
1 43252U 18030D   25300.52721801  .00000432  00000+0  14731-3 0  9991
2 43252  86.4009  27.6863 0001980  91.8149 268.3274 14.34218239396846
IRIDIUM 145             
1 43253U 18030E   25300.65406756  .00000350  00000+0  11797-3 0  9993
2 43253  86.4013  27.6059 0001729  94.0799 266.0595 14.34217710396794
IRIDIUM 146             
1 43254U 18030F   25300.49550321  .00000407  00000+0  13817-3 0  9992
2 43254  86.4009  27.6853 0001867  96.4361 263.7048 14.34217739396783
IRIDIUM 148             
1 43255U 18030G   25300.25448382  .00000366  00000+0  12367-3 0  9993
2 43255  86.4010  27.8254 0002062  99.8411 260.3018 14.34219094396780
IRIDIUM 142             
1 43256U 18030H   25300.71115006  .00000382  00000+0  12920-3 0  9992
2 43256  86.4007  27.5322 0001645  96.0291 264.1092 14.34218304396812
